[Satellite]
VERSION=1.1
NAME=SL-3 R/B
NICKNAME=SL-3 R/B
TLE1=1 19046U 88032B   15055.17026122  .00002414  00000-0  19261-3 0  9991
TLE2=2 19046  97.6214 109.9155 0040610 322.8675  36.9741 15.00618696445976
